[{"OBJECT_NAME":"STARLINK-1068","OBJECT_ID":"2019-074BM","EPOCH":"2026-03-10T00:00:02.999808","MEAN_MOTION":15.63858052,"ECCENTRICITY":0.00031548,"INCLINATION":53.0464,"RA_OF_ASC_NODE":178.3683,"ARG_OF_PERICENTER":299.0368,"MEAN_ANOMALY":26.7565,"EPHEMERIS_TYPE":0,"CLASSIFICATION_TYPE":"U","NORAD_CAT_ID":44772,"ELEMENT_SET_NO":999,"REV_AT_EPOCH":584,"BSTAR":0.0013446991,"MEAN_MOTION_DOT":0.00130128,"MEAN_MOTION_DDOT":0},{"OBJECT_NAME":"ASTROCAST-0101","OBJECT_ID":"2021-006T","EPOCH":"2026-03-09T22:32:49.923744","MEAN_MOTION":15.63443046,"ECCENTRICITY":0.00044484,"INCLINATION":97.2456,"RA_OF_ASC_NODE":134.2419,"ARG_OF_PERICENTER":131.2245,"MEAN_ANOMALY":228.9398,"EPHEMERIS_TYPE":0,"CLASSIFICATION_TYPE":"U","NORAD_CAT_ID":47430,"ELEMENT_SET_NO":999,"REV_AT_EPOCH":28437,"BSTAR":0.00059013245,"MEAN_MOTION_DOT":0.00054601,"MEAN_MOTION_DDOT":0}]
